{
    "links": {
        "self": "http://www.neowsapp.com/rest/v1/neo/3843400?api_key=iIulBulltgU6a56xZRHN4H3l9WmuAYTsLGpBGhQ2"
    },
    "id": "3843400",
    "neo_reference_id": "3843400",
    "name": "(2019 OZ2)",
    "designation": "2019 OZ2",
    "nasa_jpl_url": "http://ssd.jpl.nasa.gov/sbdb.cgi?sstr=3843400",
    "absolute_magnitude_h": 26.1,
    "estimated_diameter": {
        "kilometers": {
            "estimated_diameter_min": 0.0160160338,
            "estimated_diameter_max": 0.0358129403
        },
        "meters": {
            "estimated_diameter_min": 16.0160337979,
            "estimated_diameter_max": 35.8129403019
        },
        "miles": {
            "estimated_diameter_min": 0.0099518989,
            "estimated_diameter_max": 0.0222531225
        },
        "feet": {
            "estimated_diameter_min": 52.5460443254,
            "estimated_diameter_max": 117.4965270602
        }
    },
    "is_potentially_hazardous_asteroid": false,
    "close_approach_data": [
        {
            "close_approach_date": "2019-07-24",
            "close_approach_date_full": "2019-Jul-24 05:36",
            "epoch_date_close_approach": 1563946560000,
            "relative_velocity": {
                "kilometers_per_second": "6.8532530171",
                "kilometers_per_hour": "24671.7108615763",
                "miles_per_hour": "15330.0416739611"
            },
            "miss_distance": {
                "astronomical": "0.046421622",
                "lunar": "18.058010958",
                "kilometers": "6944575.77314514",
                "miles": "4315159.288837332"
            },
            "orbiting_body": "Earth"
        }
    ],
    "orbital_data": {
        "orbit_id": "1",
        "orbit_determination_date": "2019-07-30 08:12:07",
        "first_observation_date": "2019-07-27",
        "last_observation_date": "2019-07-30",
        "data_arc_in_days": 3,
        "observations_used": 24,
        "orbit_uncertainty": "8",
        "minimum_orbit_intersection": ".0442775",
        "jupiter_tisserand_invariant": "3.572",
        "epoch_osculation": "2458693.5",
        "eccentricity": ".4966547416362775",
        "semi_major_axis": "2.10456674733387",
        "inclination": "5.04047948883974",
        "ascending_node_longitude": "302.4599600125511",
        "orbital_period": "1115.173608930174",
        "perihelion_distance": "1.059323693180466",
        "perihelion_argument": "352.1749740833038",
        "aphelion_distance": "3.149809801487273",
        "perihelion_time": "2458683.682824192786",
        "mean_anomaly": "3.169177661931498",
        "mean_motion": ".3228196911379215",
        "equinox": "J2000",
        "orbit_class": {
            "orbit_class_type": "AMO",
            "orbit_class_description": "Near-Earth asteroid orbits similar to that of 1221 Amor",
            "orbit_class_range": "1.017 AU < q (perihelion) < 1.3 AU"
        }
    },
    "is_sentry_object": false
}